BEIDOU-3 M3 (C21)       
1 43208U 18018B   26079.67005220  .00000005  00000+0  00000+0 0  9994
2 43208  56.5746  66.0695 0010098 322.3953  37.5330  1.86230975 55090
